ONEWEB-0657             
1 55818U 23029Y   25229.35088837 -.00000116  00000+0 -32330-3 0  9998
2 55818  87.9259   5.3933 0001524 121.5018 238.6263 13.19726346118835
ONEWEB-0658             
1 55819U 23029Z   25229.34617139  .00000110  00000+0  24263-3 0  9999
2 55819  87.9268   5.3292 0001550  82.3046 277.8263 13.19724972118847
ONEWEB-0660             
1 55820U 23029AA  25229.56894086  .00000045  00000+0  87115-4 0  9996
2 55820  87.9088 350.1100 0002024  90.1572 269.9790 13.14502445119512
ONEWEB-0661             
1 55821U 23029AB  25229.60382263 -.00000175  00000+0 -50753-3 0  9994
2 55821  87.9089 350.1750 0002104  91.4083 268.7288 13.14503031119505
ONEWEB-0662             
1 55822U 23029AC  25229.56259070  .00000275  00000+0  70613-3 0  9995
2 55822  87.9089 350.1899 0001946  88.1234 272.0118 13.14503429119549
ONEWEB-0663             
1 55823U 23029AD  25229.54872884  .00000065  00000+0  12866-3 0  9991
2 55823  87.9312 334.9870 0001961  85.8232 274.3125 13.20843149121063
ONEWEB-0664             
1 55824U 23029AE  25229.55824095  .00000013  00000+0  12963-5 0  9997
2 55824  87.9306 335.0067 0002290  98.3202 261.8191 13.20773071121069
ONEWEB-0665             
1 55825U 23029AF  25229.60063436 -.00000408  00000+0 -11338-2 0  9990
2 55825  87.9090 350.1502 0001876  90.8549 269.2796 13.14502729119526
ONEWEB-0666             
1 55826U 23029AG  25229.55191422  .00000126  00000+0  27881-3 0  9998
2 55826  87.9306 334.9965 0001776 122.6756 237.4549 13.20774488121079
ONEWEB-0667             
1 55827U 23029AH  25229.24259404  .00000138  00000+0  30845-3 0  9997
2 55827  87.9298 334.9861 0001988  94.0620 266.0740 13.20773534121029
ONEWEB-0669             
1 55828U 23029AJ  25229.54089092  .00000075  00000+0  15282-3 0  9993
2 55828  87.9304 334.9653 0002515 110.4804 249.6599 13.20772379121060
ONEWEB-0670             
1 55829U 23029AK  25229.57843864  .00001026  00000+0  27341-2 0  9997
2 55829  87.9094 350.1745 0002265  92.5309 267.6080 13.14496364119546
ONEWEB-0671             
1 55830U 23029AL  25229.11398731  .00000023  00000+0  25287-4 0  9992
2 55830  87.9256   5.4327 0001955  92.1035 268.0321 13.19725680118791
ONEWEB-0672             
1 55831U 23029AM  25229.53615085  .00000105  00000+0  22696-3 0  9994
2 55831  87.9295 334.9512 0001927 108.8064 251.3278 13.20771409121069
ONEWEB-0673             
1 55832U 23029AN  25229.62099943  .00000125  00000+0  28078-3 0  9996
2 55832  87.9265   5.2964 0001707  91.0996 269.0333 13.19727034118864
ONEWEB-0674             
1 55833U 23029AP  25229.62286358  .00000237  00000+0  60366-3 0  9995
2 55833  87.9090 350.1498 0002327  94.3918 265.7478 13.14503463119535
ONEWEB-0675             
1 55834U 23029AQ  25229.33353288  .00000114  00000+0  25177-3 0  9996
2 55834  87.9253   5.3997 0001569 102.7352 257.3956 13.19726782118840
