[{"OBJECT_NAME":"ONEWEB-0657","OBJECT_ID":"2023-029Y","EPOCH":"2025-08-17T08:25:16.755168","MEAN_MOTION":13.19726346,"ECCENTRICITY":0.0001524,"INCLINATION":87.9259,"RA_OF_ASC_NODE":5.3933,"ARG_OF_PERICENTER":121.5018,"MEAN_ANOMALY":238.6263,"EPHEMERIS_TYPE":0,"CLASSIFICATION_TYPE":"U","NORAD_CAT_ID":55818,"ELEMENT_SET_NO":999,"REV_AT_EPOCH":11883,"BSTAR":-0.0003233,"MEAN_MOTION_DOT":-1.16e-6,"MEAN_MOTION_DDOT":0},{"OBJECT_NAME":"ONEWEB-0658","OBJECT_ID":"2023-029Z","EPOCH":"2025-08-17T08:18:29.208096","MEAN_MOTION":13.19724972,"ECCENTRICITY":0.000155,"INCLINATION":87.9268,"RA_OF_ASC_NODE":5.3292,"ARG_OF_PERICENTER":82.3046,"MEAN_ANOMALY":277.8263,"EPHEMERIS_TYPE":0,"CLASSIFICATION_TYPE":"U","NORAD_CAT_ID":55819,"ELEMENT_SET_NO":999,"REV_AT_EPOCH":11884,"BSTAR":0.00024263,"MEAN_MOTION_DOT":1.1e-6,"MEAN_MOTION_DDOT":0},{"OBJECT_NAME":"ONEWEB-0660","OBJECT_ID":"2023-029AA","EPOCH":"2025-08-17T13:39:16.490304","MEAN_MOTION":13.14502445,"ECCENTRICITY":0.0002024,"INCLINATION":87.9088,"RA_OF_ASC_NODE":350.11,"ARG_OF_PERICENTER":90.1572,"MEAN_ANOMALY":269.979,"EPHEMERIS_TYPE":0,"CLASSIFICATION_TYPE":"U","NORAD_CAT_ID":55820,"ELEMENT_SET_NO":999,"REV_AT_EPOCH":11951,"BSTAR":8.7115e-5,"MEAN_MOTION_DOT":4.5e-7,"MEAN_MOTION_DDOT":0},{"OBJECT_NAME":"ONEWEB-0661","OBJECT_ID":"2023-029AB","EPOCH":"2025-08-17T14:29:30.275232","MEAN_MOTION":13.14503031,"ECCENTRICITY":0.0002104,"INCLINATION":87.9089,"RA_OF_ASC_NODE":350.175,"ARG_OF_PERICENTER":91.4083,"MEAN_ANOMALY":268.7288,"EPHEMERIS_TYPE":0,"CLASSIFICATION_TYPE":"U","NORAD_CAT_ID":55821,"ELEMENT_SET_NO":999,"REV_AT_EPOCH":11950,"BSTAR":-0.00050753,"MEAN_MOTION_DOT":-1.75e-6,"MEAN_MOTION_DDOT":0},{"OBJECT_NAME":"ONEWEB-0662","OBJECT_ID":"2023-029AC","EPOCH":"2025-08-17T13:30:07.836480","MEAN_MOTION":13.14503429,"ECCENTRICITY":0.0001946,"INCLINATION":87.9089,"RA_OF_ASC_NODE":350.1899,"ARG_OF_PERICENTER":88.1234,"MEAN_ANOMALY":272.0118,"EPHEMERIS_TYPE":0,"CLASSIFICATION_TYPE":"U","NORAD_CAT_ID":55822,"ELEMENT_SET_NO":999,"REV_AT_EPOCH":11954,"BSTAR":0.00070613,"MEAN_MOTION_DOT":2.75e-6,"MEAN_MOTION_DDOT":0},{"OBJECT_NAME":"ONEWEB-0663","OBJECT_ID":"2023-029AD","EPOCH":"2025-08-17T13:10:10.171776","MEAN_MOTION":13.20843149,"ECCENTRICITY":0.0001961,"INCLINATION":87.9312,"RA_OF_ASC_NODE":334.987,"ARG_OF_PERICENTER":85.8232,"MEAN_ANOMALY":274.3125,"EPHEMERIS_TYPE":0,"CLASSIFICATION_TYPE":"U","NORAD_CAT_ID":55823,"ELEMENT_SET_NO":999,"REV_AT_EPOCH":12106,"BSTAR":0.00012866,"MEAN_MOTION_DOT":6.5e-7,"MEAN_MOTION_DDOT":0},{"OBJECT_NAME":"ONEWEB-0664","OBJECT_ID":"2023-029AE","EPOCH":"2025-08-17T13:23:52.018080","MEAN_MOTION":13.20773071,"ECCENTRICITY":0.000229,"INCLINATION":87.9306,"RA_OF_ASC_NODE":335.0067,"ARG_OF_PERICENTER":98.3202,"MEAN_ANOMALY":261.8191,"EPHEMERIS_TYPE":0,"CLASSIFICATION_TYPE":"U","NORAD_CAT_ID":55824,"ELEMENT_SET_NO":999,"REV_AT_EPOCH":12106,"BSTAR":1.2963e-6,"MEAN_MOTION_DOT":1.3e-7,"MEAN_MOTION_DDOT":0},{"OBJECT_NAME":"ONEWEB-0665","OBJECT_ID":"2023-029AF","EPOCH":"2025-08-17T14:24:54.808704","MEAN_MOTION":13.14502729,"ECCENTRICITY":0.0001876,"INCLINATION":87.909,"RA_OF_ASC_NODE":350.1502,"ARG_OF_PERICENTER":90.8549,"MEAN_ANOMALY":269.2796,"EPHEMERIS_TYPE":0,"CLASSIFICATION_TYPE":"U","NORAD_CAT_ID":55825,"ELEMENT_SET_NO":999,"REV_AT_EPOCH":11952,"BSTAR":-0.0011338,"MEAN_MOTION_DOT":-4.08e-6,"MEAN_MOTION_DDOT":0},{"OBJECT_NAME":"ONEWEB-0666","OBJECT_ID":"2023-029AG","EPOCH":"2025-08-17T13:14:45.388608","MEAN_MOTION":13.20774488,"ECCENTRICITY":0.0001776,"INCLINATION":87.9306,"RA_OF_ASC_NODE":334.9965,"ARG_OF_PERICENTER":122.6756,"MEAN_ANOMALY":237.4549,"EPHEMERIS_TYPE":0,"CLASSIFICATION_TYPE":"U","NORAD_CAT_ID":55826,"ELEMENT_SET_NO":999,"REV_AT_EPOCH":12107,"BSTAR":0.00027881,"MEAN_MOTION_DOT":1.26e-6,"MEAN_MOTION_DDOT":0},{"OBJECT_NAME":"ONEWEB-0667","OBJECT_ID":"2023-029AH","EPOCH":"2025-08-17T05:49:20.125056","MEAN_MOTION":13.20773534,"ECCENTRICITY":0.0001988,"INCLINATION":87.9298,"RA_OF_ASC_NODE":334.9861,"ARG_OF_PERICENTER":94.062,"MEAN_ANOMALY":266.074,"EPHEMERIS_TYPE":0,"CLASSIFICATION_TYPE":"U","NORAD_CAT_ID":55827,"ELEMENT_SET_NO":999,"REV_AT_EPOCH":12102,"BSTAR":0.00030845,"MEAN_MOTION_DOT":1.38e-6,"MEAN_MOTION_DDOT":0},{"OBJECT_NAME":"ONEWEB-0669","OBJECT_ID":"2023-029AJ","EPOCH":"2025-08-17T12:58:52.975488","MEAN_MOTION":13.20772379,"ECCENTRICITY":0.0002515,"INCLINATION":87.9304,"RA_OF_ASC_NODE":334.9653,"ARG_OF_PERICENTER":110.4804,"MEAN_ANOMALY":249.6599,"EPHEMERIS_TYPE":0,"CLASSIFICATION_TYPE":"U","NORAD_CAT_ID":55828,"ELEMENT_SET_NO":999,"REV_AT_EPOCH":12106,"BSTAR":0.00015282,"MEAN_MOTION_DOT":7.5e-7,"MEAN_MOTION_DDOT":0},{"OBJECT_NAME":"ONEWEB-0670","OBJECT_ID":"2023-029AK","EPOCH":"2025-08-17T13:52:57.098496","MEAN_MOTION":13.14496364,"ECCENTRICITY":0.0002265,"INCLINATION":87.9094,"RA_OF_ASC_NODE":350.1745,"ARG_OF_PERICENTER":92.5309,"MEAN_ANOMALY":267.608,"EPHEMERIS_TYPE":0,"CLASSIFICATION_TYPE":"U","NORAD_CAT_ID":55829,"ELEMENT_SET_NO":999,"REV_AT_EPOCH":11954,"BSTAR":0.0027341,"MEAN_MOTION_DOT":1.026e-5,"MEAN_MOTION_DDOT":0},{"OBJECT_NAME":"ONEWEB-0671","OBJECT_ID":"2023-029AL","EPOCH":"2025-08-17T02:44:08.503584","MEAN_MOTION":13.1972568,"ECCENTRICITY":0.0001955,"INCLINATION":87.9256,"RA_OF_ASC_NODE":5.4327,"ARG_OF_PERICENTER":92.1035,"MEAN_ANOMALY":268.0321,"EPHEMERIS_TYPE":0,"CLASSIFICATION_TYPE":"U","NORAD_CAT_ID":55830,"ELEMENT_SET_NO":999,"REV_AT_EPOCH":11879,"BSTAR":2.5287e-5,"MEAN_MOTION_DOT":2.3e-7,"MEAN_MOTION_DDOT":0},{"OBJECT_NAME":"ONEWEB-0672","OBJECT_ID":"2023-029AM","EPOCH":"2025-08-17T12:52:03.433440","MEAN_MOTION":13.20771409,"ECCENTRICITY":0.0001927,"INCLINATION":87.9295,"RA_OF_ASC_NODE":334.9512,"ARG_OF_PERICENTER":108.8064,"MEAN_ANOMALY":251.3278,"EPHEMERIS_TYPE":0,"CLASSIFICATION_TYPE":"U","NORAD_CAT_ID":55831,"ELEMENT_SET_NO":999,"REV_AT_EPOCH":12106,"BSTAR":0.00022696,"MEAN_MOTION_DOT":1.05e-6,"MEAN_MOTION_DDOT":0},{"OBJECT_NAME":"ONEWEB-0673","OBJECT_ID":"2023-029AN","EPOCH":"2025-08-17T14:54:14.350752","MEAN_MOTION":13.19727034,"ECCENTRICITY":0.0001707,"INCLINATION":87.9265,"RA_OF_ASC_NODE":5.2964,"ARG_OF_PERICENTER":91.0996,"MEAN_ANOMALY":269.0333,"EPHEMERIS_TYPE":0,"CLASSIFICATION_TYPE":"U","NORAD_CAT_ID":55832,"ELEMENT_SET_NO":999,"REV_AT_EPOCH":11886,"BSTAR":0.00028078,"MEAN_MOTION_DOT":1.25e-6,"MEAN_MOTION_DDOT":0},{"OBJECT_NAME":"ONEWEB-0674","OBJECT_ID":"2023-029AP","EPOCH":"2025-08-17T14:56:55.413312","MEAN_MOTION":13.14503463,"ECCENTRICITY":0.0002327,"INCLINATION":87.909,"RA_OF_ASC_NODE":350.1498,"ARG_OF_PERICENTER":94.3918,"MEAN_ANOMALY":265.7478,"EPHEMERIS_TYPE":0,"CLASSIFICATION_TYPE":"U","NORAD_CAT_ID":55833,"ELEMENT_SET_NO":999,"REV_AT_EPOCH":11953,"BSTAR":0.00060366,"MEAN_MOTION_DOT":2.37e-6,"MEAN_MOTION_DDOT":0},{"OBJECT_NAME":"ONEWEB-0675","OBJECT_ID":"2023-029AQ","EPOCH":"2025-08-17T08:00:17.240832","MEAN_MOTION":13.19726782,"ECCENTRICITY":0.0001569,"INCLINATION":87.9253,"RA_OF_ASC_NODE":5.3997,"ARG_OF_PERICENTER":102.7352,"MEAN_ANOMALY":257.3956,"EPHEMERIS_TYPE":0,"CLASSIFICATION_TYPE":"U","NORAD_CAT_ID":55834,"ELEMENT_SET_NO":999,"REV_AT_EPOCH":11884,"BSTAR":0.00025177,"MEAN_MOTION_DOT":1.14e-6,"MEAN_MOTION_DDOT":0}]
